{"type": "FeatureCollection", "features": [ {"type": "Feature", "properties": {"norad_id": 36539, "name": "COSMOS 2251 DEB", "group": "cosmos-2251-debris", "lat": -24.188136071140033, "lon": 54.46633363783929, "alt_km": 712.4941190393938, "timestamp": "2025-12-09T05:43:21.123971+00:00", "meta": {"OBJECT_NAME": "COSMOS 2251 DEB", "OBJECT_ID": "1993-036BCZ", "EPOCH": "2025-12-08T15:01:48.857088", "MEAN_MOTION": 14.59258654, "ECCENTRICITY": 0.0027439, "INCLINATION": 74.024, "RA_OF_ASC_NODE": 63.0267, "ARG_OF_PERICENTER": 208.7649, "MEAN_ANOMALY": 151.2005, "EPHEMERIS_TYPE": 0, "CLASSIFICATION_TYPE": "U", "NORAD_CAT_ID": 36539, "ELEMENT_SET_NO": 999, "REV_AT_EPOCH": 83887, "BSTAR": 0.001238, "MEAN_MOTION_DOT": 5.851e-05, "MEAN_MOTION_DDOT": 0}, "tle": {"line1": "1 36539U 93036BCZ 25342.62625992  .00005851  00000+0  12380-2 0  9998", "line2": "2 36539  74.0240  63.0267 0027439 208.7649 151.2005 14.59258654838877"}}, "geometry": {"type": "Point", "coordinates": [54.46633363783929, -24.188136071140033]}}, {"type": "Feature", "properties": {"norad_id": 36540, "name": "COSMOS 2251 DEB", "group": "cosmos-2251-debris", "lat": -50.13771836330603, "lon": 167.12458599655298, "alt_km": 697.8456146707595, "timestamp": "2025-12-09T05:43:21.123982+00:00", "meta": {"OBJECT_NAME": "COSMOS 2251 DEB", "OBJECT_ID": "1993-036BDA", "EPOCH": "2025-12-08T15:08:53.820672", "MEAN_MOTION": 14.58423292, "ECCENTRICITY": 0.0015175, "INCLINATION": 74.028, "RA_OF_ASC_NODE": 188.34, "ARG_OF_PERICENTER": 258.647, "MEAN_ANOMALY": 101.299, "EPHEMERIS_TYPE": 0, "CLASSIFICATION_TYPE": "U", "NORAD_CAT_ID": 36540, "ELEMENT_SET_NO": 999, "REV_AT_EPOCH": 85950, "BSTAR": 0.0014806, "MEAN_MOTION_DOT": 6.854e-05, "MEAN_MOTION_DDOT": 0}, "tle": {"line1": "1 36540U 93036BDA 25342.63117848  .00006854  00000+0  14806-2 0  9996", "line2": "2 36540  74.0280 188.3400 0015175 258.6470 101.2990 14.58423292859505"}}, "geometry": {"type": "Point", "coordinates": [167.12458599655298, -50.13771836330603]}}, {"type": "Feature", "properties": {"norad_id": 36550, "name": "COSMOS 2251 DEB", "group": "cosmos-2251-debris", "lat": 0.07291036109040977, "lon": 19.05739678584383, "alt_km": 784.555428737981, "timestamp": "2025-12-09T05:43:21.123992+00:00", "meta": {"OBJECT_NAME": "COSMOS 2251 DEB", "OBJECT_ID": "1993-036BDL", "EPOCH": "2025-12-05T23:29:18.021984", "MEAN_MOTION": 14.27168955, "ECCENTRICITY": 0.00788112, "INCLINATION": 74.0447, "RA_OF_ASC_NODE": 204.9723, "ARG_OF_PERICENTER": 257.0912, "MEAN_ANOMALY": 102.1425, "EPHEMERIS_TYPE": 0, "CLASSIFICATION_TYPE": "U", "NORAD_CAT_ID": 36550, "ELEMENT_SET_NO": 999, "REV_AT_EPOCH": 84499, "BSTAR": 0.0010210292, "MEAN_MOTION_DOT": 2.55e-05, "MEAN_MOTION_DDOT": 0}, "tle": {"line1": "1 36550U 93036BDL 25339.97868081  .00002550  00000+0  10210-2 0  9996", "line2": "2 36550  74.0447 204.9723 0078811 257.0912 102.1425 14.27168955844992"}}, "geometry": {"type": "Point", "coordinates": [19.05739678584383, 0.07291036109040977]}}, {"type": "Feature", "properties": {"norad_id": 36551, "name": "COSMOS 2251 DEB", "group": "cosmos-2251-debris", "lat": 8.842020790669126, "lon": 24.4921568786406, "alt_km": 532.9438929338176, "timestamp": "2025-12-09T05:43:21.124003+00:00", "meta": {"OBJECT_NAME": "COSMOS 2251 DEB", "OBJECT_ID": "1993-036BDM", "EPOCH": "2025-12-08T08:54:22.090464", "MEAN_MOTION": 15.02351194, "ECCENTRICITY": 0.00510952, "INCLINATION": 73.8874, "RA_OF_ASC_NODE": 23.6994, "ARG_OF_PERICENTER": 333.4464, "MEAN_ANOMALY": 26.4106, "EPHEMERIS_TYPE": 0, "CLASSIFICATION_TYPE": "U", "NORAD_CAT_ID": 36551, "ELEMENT_SET_NO": 999, "REV_AT_EPOCH": 66866, "BSTAR": 0.0015730884, "MEAN_MOTION_DOT": 0.0002143, "MEAN_MOTION_DDOT": 0}, "tle": {"line1": "1 36551U 93036BDM 25342.37108901  .00021430  00000+0  15731-2 0  9994", "line2": "2 36551  73.8874  23.6994 0051095 333.4464  26.4106 15.02351194668661"}}, "geometry": {"type": "Point", "coordinates": [24.4921568786406, 8.842020790669126]}}, {"type": "Feature", "properties": {"norad_id": 36557, "name": "COSMOS 2251 DEB", "group": "cosmos-2251-debris", "lat": -57.6355317492643, "lon": 106.18899646680653, "alt_km": 628.2061510311178, "timestamp": "2025-12-09T05:43:21.124013+00:00", "meta": {"OBJECT_NAME": "COSMOS 2251 DEB", "OBJECT_ID": "1993-036BDT", "EPOCH": "2025-12-08T17:00:11.363904", "MEAN_MOTION": 14.77931999, "ECCENTRICITY": 0.0021031, "INCLINATION": 73.9794, "RA_OF_ASC_NODE": 134.1932, "ARG_OF_PERICENTER": 285.3686, "MEAN_ANOMALY": 74.5165, "EPHEMERIS_TYPE": 0, "CLASSIFICATION_TYPE": "U", "NORAD_CAT_ID": 36557, "ELEMENT_SET_NO": 999, "REV_AT_EPOCH": 33837, "BSTAR": 0.0042795, "MEAN_MOTION_DOT": 0.00031056, "MEAN_MOTION_DDOT": 0}, "tle": {"line1": "1 36557U 93036BDT 25342.70846486  .00031056  00000+0  42795-2 0  9999", "line2": "2 36557  73.9794 134.1932 0021031 285.3686  74.5165 14.77931999338376"}}, "geometry": {"type": "Point", "coordinates": [106.18899646680653, -57.6355317492643]}}, {"type": "Feature", "properties": {"norad_id": 36558, "name": "COSMOS 2251 DEB", "group": "cosmos-2251-debris", "lat": 15.42059625297453, "lon": -23.35538742931896, "alt_km": 708.0430501155033, "timestamp": "2025-12-09T05:43:21.124024+00:00", "meta": {"OBJECT_NAME": "COSMOS 2251 DEB", "OBJECT_ID": "1993-036BDU", "EPOCH": "2025-12-08T19:04:19.636608", "MEAN_MOTION": 14.55314929, "ECCENTRICITY": 0.0013, "INCLINATION": 74.0417, "RA_OF_ASC_NODE": 162.0114, "ARG_OF_PERICENTER": 250.4563, "MEAN_ANOMALY": 109.5197, "EPHEMERIS_TYPE": 0, "CLASSIFICATION_TYPE": "U", "NORAD_CAT_ID": 36558, "ELEMENT_SET_NO": 999, "REV_AT_EPOCH": 85211, "BSTAR": 0.0014407, "MEAN_MOTION_DOT": 6.231e-05, "MEAN_MOTION_DDOT": 0}, "tle": {"line1": "1 36558U 93036BDU 25342.79467172  .00006231  00000+0  14407-2 0  9996", "line2": "2 36558  74.0417 162.0114 0013000 250.4563 109.5197 14.55314929852118"}}, "geometry": {"type": "Point", "coordinates": [-23.35538742931896, 15.42059625297453]}}, {"type": "Feature", "properties": {"norad_id": 36559, "name": "COSMOS 2251 DEB", "group": "cosmos-2251-debris", "lat": 33.16340247332868, "lon": 26.50775541750098, "alt_km": 724.8109376565799, "timestamp": "2025-12-09T05:43:21.124034+00:00", "meta": {"OBJECT_NAME": "COSMOS 2251 DEB", "OBJECT_ID": "1993-036BDV", "EPOCH": "2025-12-08T03:45:01.813536", "MEAN_MOTION": 13.95135838, "ECCENTRICITY": 0.02600272, "INCLINATION": 74.1301, "RA_OF_ASC_NODE": 17.6431, "ARG_OF_PERICENTER": 51.8718, "MEAN_ANOMALY": 310.5544, "EPHEMERIS_TYPE": 0, "CLASSIFICATION_TYPE": "U", "NORAD_CAT_ID": 36559, "ELEMENT_SET_NO": 999, "REV_AT_EPOCH": 81030, "BSTAR": 0.0033662346, "MEAN_MOTION_DOT": 6.006e-05, "MEAN_MOTION_DDOT": 0}, "tle": {"line1": "1 36559U 93036BDV 25342.15627099  .00006006  00000+0  33662-2 0  9997", "line2": "2 36559  74.1301  17.6431 0260027  51.8718 310.5544 13.95135838810305"}}, "geometry": {"type": "Point", "coordinates": [26.50775541750098, 33.16340247332868]}}, {"type": "Feature", "properties": {"norad_id": 36614, "name": "COSMOS 2251 DEB", "group": "cosmos-2251-debris", "lat": 57.06932573816871, "lon": -24.983379189666604, "alt_km": 694.4234532681394, "timestamp": "2025-12-09T05:43:21.124044+00:00", "meta": {"OBJECT_NAME": "COSMOS 2251 DEB", "OBJECT_ID": "1993-036BEC", "EPOCH": "2025-12-07T20:17:29.491872", "MEAN_MOTION": 14.60174339, "ECCENTRICITY": 0.00163717, "INCLINATION": 74.0208, "RA_OF_ASC_NODE": 183.9343, "ARG_OF_PERICENTER": 254.1253, "MEAN_ANOMALY": 105.8109, "EPHEMERIS_TYPE": 0, "CLASSIFICATION_TYPE": "U", "NORAD_CAT_ID": 36614, "ELEMENT_SET_NO": 999, "REV_AT_EPOCH": 65541, "BSTAR": 0.0021436205, "MEAN_MOTION_DOT": 0.00010332, "MEAN_MOTION_DDOT": 0}, "tle": {"line1": "1 36614U 93036BEC 25341.84548023  .00010332  00000+0  21436-2 0  9996", "line2": "2 36614  74.0208 183.9343 0016371 254.1253 105.8109 14.60174339655417"}}, "geometry": {"type": "Point", "coordinates": [-24.983379189666604, 57.06932573816871]}}, {"type": "Feature", "properties": {"norad_id": 36622, "name": "COSMOS 2251 DEB", "group": "cosmos-2251-debris", "lat": -15.727750505602112, "lon": 147.71087327557834, "alt_km": 618.3392726118846, "timestamp": "2025-12-09T05:43:21.124054+00:00", "meta": {"OBJECT_NAME": "COSMOS 2251 DEB", "OBJECT_ID": "1993-036BEL", "EPOCH": "2025-12-07T18:00:44.362080", "MEAN_MOTION": 14.76130008, "ECCENTRICITY": 0.00687085, "INCLINATION": 74.0127, "RA_OF_ASC_NODE": 155.2579, "ARG_OF_PERICENTER": 291.6324, "MEAN_ANOMALY": 67.7541, "EPHEMERIS_TYPE": 0, "CLASSIFICATION_TYPE": "U", "NORAD_CAT_ID": 36622, "ELEMENT_SET_NO": 999, "REV_AT_EPOCH": 66676, "BSTAR": 0.0010654006, "MEAN_MOTION_DOT": 7.621e-05, "MEAN_MOTION_DDOT": 0}, "tle": {"line1": "1 36622U 93036BEL 25341.75051345  .00007621  00000+0  10654-2 0  9998", "line2": "2 36622  74.0127 155.2579 0068708 291.6324  67.7541 14.76130008666763"}}, "geometry": {"type": "Point", "coordinates": [147.71087327557834, -15.727750505602112]}}, {"type": "Feature", "properties": {"norad_id": 36632, "name": "COSMOS 2251 DEB", "group": "cosmos-2251-debris", "lat": -20.181520889398023, "lon": 124.93952365618696, "alt_km": 773.1896390936336, "timestamp": "2025-12-09T05:43:21.124065+00:00", "meta": {"OBJECT_NAME": "COSMOS 2251 DEB", "OBJECT_ID": "1993-036BEW", "EPOCH": "2025-12-08T03:50:26.997216", "MEAN_MOTION": 14.43133085, "ECCENTRICITY": 0.00317609, "INCLINATION": 74.0032, "RA_OF_ASC_NODE": 300.8928, "ARG_OF_PERICENTER": 49.809, "MEAN_ANOMALY": 310.5839, "EPHEMERIS_TYPE": 0, "CLASSIFICATION_TYPE": "U", "NORAD_CAT_ID": 36632, "ELEMENT_SET_NO": 999, "REV_AT_EPOCH": 65149, "BSTAR": 0.0011897932, "MEAN_MOTION_DOT": 3.995e-05, "MEAN_MOTION_DDOT": 0}, "tle": {"line1": "1 36632U 93036BEW 25342.16003469  .00003995  00000+0  11898-2 0  9990", "line2": "2 36632  74.0032 300.8928 0031760  49.8090 310.5839 14.43133085651491"}}, "geometry": {"type": "Point", "coordinates": [124.93952365618696, -20.181520889398023]}}]}